#dP2023  6 25  0  0  0.00000000      96 __u+U IGS14 FIT  IAC
## 2268      0.00000000   900.00000000 60120 0.0000000000000
+  119   C06C07C08C09C10C11C12C13C14C16C19C20C21C22C23C24C25
+        C26C27C28C29C30C32C33C34C35C36C37C38C39C40C41C42C43
+        C44C45C46E02E03E04E05E07E08E09E10E11E12E13E14E15E18
+        E19E21E24E25E26E27E30E31E33E34E36G01G02G03G04G05G06
+        G07G08G09G10G11G12G13G14G15G16G17G18G19G20G21G22G23
+        G24G25G26G27G28G29G30G31G32J02J03J04R01R02R03R04R05
+        R07R08R09R11R12R13R14R15R16R17R18R19R20R21R22R24R25
++         7  8  7  7  7  7  7  7  7  7  6  6  6  6  6  6  6
++         6  5  5  6  6  6  6  6  6  6  6  6  6  8  6  6  6
++         6  6  6  5  4  4  4  4  4  4  4  4  4  4  4  4  4
++         5  4  4  4  5  4  4  4  5  4  4  3  3  3  3  4  4
++         4  4  4  3  4  3  4  3  3  4  3  3  4  4  3  4  3
++         3  3  4  4  4  4  3  4  3  9  9  9  8  7  7  7  7
++         6  7  7  7  7  8  7  7  7  7  7  8  8  6  7  7  8
%c M  cc GPS ccc cccc cccc cccc cccc ccccc ccccc ccccc ccccc
%c cc cc ccc ccc cccc cccc cccc cccc ccccc ccccc ccccc ccccc
%f  1.2500000  1.025000000  0.00000000000  0.000000000000000
%f  0.0000000  0.000000000  0.00000000000  0.000000000000000
%i    0    0    0    0      0      0      0      0         0
%i    0    0    0    0      0      0      0      0         0
/* INFORMATION & ANALYSIS CENTER (IAC)            FINAL DATA
/* S/V CLOCKS ARE ALIGNED TO GNSS TIME                      
/* G:C1WC2W R:C1PC2P E:C1XC5X C:C2IC6I J:C1CC2S             
/* PCV:IGS20_2247 OL/AL:FES2004  NONE     YN ORB:CoN CLK:CoN
*  2023 06 25 11  0  0.00000000
PC06  -9176.693785  40483.285745   8222.920756   -171.794606
PC07  -4576.323651  27677.930388 -31404.517785   -225.595930
PC08 -17975.465557  26575.669362  27251.377553    448.914947
PC09  -4180.553589  42220.043514  -1482.069008    492.778095
PC10   2540.285706  29387.058070 -29651.342503    -95.944456
PC11  15420.425559   -796.630024  23303.931919    692.590347
PC12  13016.639915  19187.459712  15550.093853    738.945746
PC13 -10183.859887  27106.758752  30668.571484    303.198279
PC14  25695.834569   2063.359016 -10591.662792    464.000695
PC16  -9717.173828  40098.403067   9677.777166     30.244645
PC19 -20829.778256   5054.500612  17909.150672   -928.675344
PC20 -26613.755257  -7788.745704   3320.629681    479.775180
PC21  16668.461025  17010.076822  14533.904622   -927.102529
PC22  -2771.280871  15650.835836  22932.161848   -424.990782
PC23  13026.865943 -21600.167673  11947.945001   -969.246956
PC24  20064.820895   1733.684269 -19331.000551    101.892526
PC25  22935.120443 -15294.624007  -4409.124863    154.635850
PC26   6339.823772  15614.136470 -22249.990628   -139.711964
PC27  -9545.594790 -24852.329809  -8376.130242    160.293969
PC28   1704.578437 -26683.843992   7997.423186    119.213712
PC29 -12899.169272  12420.562633 -21412.925608    138.733843
PC30 -16370.083559  -9450.665024 -20535.198455     -1.542163
PC32 -16781.405069 -16892.924093 -14554.070967   -545.101475
PC33  20839.937375  -5138.367959 -17817.870133   -901.222436
PC34  16489.689331   8013.656451  21026.874101    200.809875
PC35  -1126.156084  26587.921255  -8476.279665    601.134525
PC36 -23455.307455  14218.977974   5155.635383   -363.891768
PC37  -4893.994822 -16440.998780  22032.189680   -787.641473
PC38 -23555.258770  28318.619366  20433.521212     87.429910
PC39 -10907.128327  37810.926582  15496.447055     -3.491833
PC40  -7780.694758  22407.969889 -34850.209952    -27.322518
PC41   3439.227284 -15445.094341 -22935.072856   -914.278119
PC42  26435.754223   8675.836151  -1877.458525   -635.912375
PC43  13378.615131 -11506.444586  21599.891293     27.800128
PC44  10384.797865  24611.097481   8106.366048    148.979766
PC45 -12666.024342  21542.121629 -12394.053709   -114.685434
PC46 -20747.413919   -399.627242  18645.890252    -64.124283
PE02  11647.449306 -16365.698768  21744.741219     46.080727
PE03    837.573464 -21979.609453 -19814.168339    -29.796375
PE04  15032.588942  25107.444841   4442.433651   -152.553843
PE05  16514.794392  -5890.142054 -23840.294280     -6.321810
PE07 -22383.382280 -13759.359865  13656.245008    -55.263799
PE08 -14881.242625 -25147.280654  -4775.857549   -104.472796
PE09  22316.149655  13907.912461 -13567.351708    -62.370460
PE10  10174.760686  14819.804011  23500.769635   -543.799895
PE11  15793.067435   3766.794121  24731.195400   2318.259294
PE12   3526.601385  22682.669519  18686.224971   -593.460390
PE13 -15433.683349  -4528.586094 -24853.744196    -19.308393
PE14 -15814.261787 -26520.086084    638.645370    264.066155
PE15  -3269.887289 -22872.239904 -18502.026519    -32.148686
PE18   5845.633186  23542.498604  -8419.748159    222.428249
PE19  -3151.353310  20375.627806  21248.612335  -2220.153815
PE21 -26890.909376   9042.971236  -8445.109663   -537.025292
PE24  27107.420538   4523.238840 -11028.884898   -174.342735
PE25  27050.088077  -8851.298812   8140.356863   -607.319827
PE26 -18417.210264  16821.330989 -15941.075650    144.367216
PE27 -27412.031285  -3953.609736  10445.301624    -83.376342
PE30 -11189.473504 -14738.383981  23094.863337   -283.883728
PE31  11793.890249  14468.321635 -22962.587152   -526.630208
PE33 -10730.364343  27561.880045   1273.838157   -442.720854
PE34  10576.870984 -27613.832060  -1443.497904    -52.682962
PE36  18396.788276 -16213.272651  16567.980698    -76.477686
PG01  14276.946459 -21462.067569   5240.148846    176.303719
PG02  15609.176186 -17893.855771  12247.264316   -582.455730
PG03  16504.882840 -12631.083144 -16604.352002   -257.603100
PG04   6276.137592 -16056.756965 -20160.956929     77.903077
PG05 -26066.091714   4941.235226   2041.395645   -132.454054
PG06  -9348.574317 -12821.779018 -21221.860038    582.961894
PG07   4029.339376 -24434.106839   9368.933758    142.870432
PG08  14941.959778  -5040.334312  21346.144916   -129.068115
PG09  -3310.305161 -21933.094191 -14650.124369   -127.537936
PG10  14806.670860  11538.972643  19092.312640    -42.598991
PG11 -17141.930254   2688.717137 -20090.451320   -249.584533
PG12 -19836.986729  10398.404128 -14489.168581   -392.909103
PG13 -17253.895179  -4115.487976  19655.620266    538.703790
PG14 -11344.727201 -13604.434319  19852.665484    101.949791
PG15 -14064.711081   7545.338937  20794.315472     52.091775
PG16  26766.950410    974.039471  -1420.062224   -487.837106
PG17 -13599.727033 -22745.591481    451.223254    719.406819
PG18  -2726.435683  23634.858658  11634.453033   -321.264811
PG19 -16861.977495 -19224.962901  -7978.776859    335.293843
PG20 -25223.208857    753.311946  -7936.100193    426.112521
PG21  16312.215834 -14783.416103  14734.390237    152.798804
PG22  17828.443042  16886.296604  -9863.993885    503.267099
PG23   1219.212867  14872.197057  21973.410459     36.614551
PG24 -14696.799275  19379.921996   9792.233456   -236.749804
PG25  -7262.433409  15447.625074 -20597.989511    452.082059
PG26  22882.462768   5818.215455 -12613.752293    238.211639
PG27  19276.305543   7238.164053  16749.683300      9.552797
PG28   9106.018199  14678.231159 -20198.219984     83.624086
PG29    -26.337401  21172.433812 -16031.814719   -603.845996
PG30  -3924.777622 -20321.504166  16612.988779   -508.722544
PG31  15674.448730   2668.265619 -21496.492017   -218.856279
PG32  16492.670743  20863.395034  -1807.463554   -507.837762
PJ02 -34163.226794  15943.103075 -14282.889772     -0.805652
PJ03 -20545.182333  32404.228010 -13026.162351      7.460188
PJ04 -27320.526817  26754.852367  23880.039668     95.838471
PR01   5027.023545  -9782.791313 -23012.492509     60.120440
PR02 -12255.070863 -16150.641527 -15394.095684    -22.659165
PR03 -21967.487209 -12868.371935   1061.339531     80.337323
PR04 -19190.996392  -2873.681430  16581.194049    192.555772
PR05  -6138.506618   8838.172704  23139.671989    114.744093
PR07  22124.915370  12617.692155  -1754.642895     58.785873
PR08  19182.196414   2628.640344 -16563.097240    -71.407528
PR09    265.699468  12559.067388 -22190.631619    127.717892
PR11  22790.958875  -8961.227467  -7089.818276    -88.364117
PR12  16397.551152 -15550.602389  11871.538229     28.463366
PR13   1897.614575 -13108.911364  21789.686112    -36.441137
PR14 -16076.740928  -1981.426676  19728.918660     24.852528
PR15 -22978.285889   9412.481373   5880.615257     88.323213
PR16 -16587.330637  15569.050315 -11562.106798     16.002546
PR17  -8919.205435 -12415.284285 -20432.376703    642.142881
PR18 -10405.684176   5718.300309 -22575.339886     88.367919
PR19  -7743.568620  19683.524543 -14260.006178   -237.538184
PR20    900.445099  24786.590855   6042.067519    -95.392218
PR21   9095.788606  11070.900516  21088.368618    -17.901680
PR22  10953.976505  -6318.504062  22171.905718     84.821985
PR24  -2182.241617 -24556.164657  -6577.105791    -13.589981
PR25   8600.651516  12870.457498  20267.333035     58.218993
EOF
